{"type": "FeatureCollection", "features": [ {"type": "Feature", "properties": {"norad_id": 34538, "name": "IRIDIUM 33 DEB", "group": "iridium-33-debris", "lat": -84.87935179331001, "lon": -134.20532709803206, "alt_km": 734.6645055620947, "timestamp": "2025-12-27T06:41:31.311205+00:00", "meta": {"OBJECT_NAME": "IRIDIUM 33 DEB", "OBJECT_ID": "1997-051JF", "EPOCH": "2025-12-26T18:05:01.336416", "MEAN_MOTION": 14.42730445, "ECCENTRICITY": 0.0031825, "INCLINATION": 86.2767, "RA_OF_ASC_NODE": 359.4165, "ARG_OF_PERICENTER": 279.2395, "MEAN_ANOMALY": 140.4767, "EPHEMERIS_TYPE": 0, "CLASSIFICATION_TYPE": "U", "NORAD_CAT_ID": 34538, "ELEMENT_SET_NO": 999, "REV_AT_EPOCH": 87958, "BSTAR": 0.00099526831, "MEAN_MOTION_DOT": 3.352e-05, "MEAN_MOTION_DDOT": 0}, "tle": {"line1": "1 34538U 97051JF  25360.75348769  .00003352  00000+0  99527-3 0  9997", "line2": "2 34538  86.2767 359.4165 0031825 279.2395 140.4767 14.42730445879580"}}, "geometry": {"type": "Point", "coordinates": [-134.20532709803206, -84.87935179331001]}}, {"type": "Feature", "properties": {"norad_id": 34540, "name": "IRIDIUM 33 DEB", "group": "iridium-33-debris", "lat": -57.69548100901063, "lon": 126.81601835942416, "alt_km": 658.1406136483547, "timestamp": "2025-12-27T06:41:31.311216+00:00", "meta": {"OBJECT_NAME": "IRIDIUM 33 DEB", "OBJECT_ID": "1997-051JH", "EPOCH": "2025-12-26T07:30:51.838272", "MEAN_MOTION": 14.75597732, "ECCENTRICITY": 0.001844, "INCLINATION": 86.311, "RA_OF_ASC_NODE": 301.401, "ARG_OF_PERICENTER": 114.305, "MEAN_ANOMALY": 36.5387, "EPHEMERIS_TYPE": 0, "CLASSIFICATION_TYPE": "U", "NORAD_CAT_ID": 34540, "ELEMENT_SET_NO": 999, "REV_AT_EPOCH": 89221, "BSTAR": 0.0015802, "MEAN_MOTION_DOT": 0.00010835, "MEAN_MOTION_DDOT": 0}, "tle": {"line1": "1 34540U 97051JH  25360.31309998  .00010835  00000+0  15802-2 0  9990", "line2": "2 34540  86.3110 301.4010 0018440 114.3050  36.5387 14.75597732892211"}}, "geometry": {"type": "Point", "coordinates": [126.81601835942416, -57.69548100901063]}}, {"type": "Feature", "properties": {"norad_id": 34648, "name": "IRIDIUM 33 DEB", "group": "iridium-33-debris", "lat": -66.53378622193434, "lon": -92.28640540651156, "alt_km": 760.9612974838747, "timestamp": "2025-12-27T06:41:31.311226+00:00", "meta": {"OBJECT_NAME": "IRIDIUM 33 DEB", "OBJECT_ID": "1997-051JZ", "EPOCH": "2025-12-26T17:23:51.360000", "MEAN_MOTION": 14.11887507, "ECCENTRICITY": 0.01778864, "INCLINATION": 86.3901, "RA_OF_ASC_NODE": 276.2989, "ARG_OF_PERICENTER": 254.825, "MEAN_ANOMALY": 103.3201, "EPHEMERIS_TYPE": 0, "CLASSIFICATION_TYPE": "U", "NORAD_CAT_ID": 34648, "ELEMENT_SET_NO": 999, "REV_AT_EPOCH": 85158, "BSTAR": 0.0061458154, "MEAN_MOTION_DOT": 0.00013057, "MEAN_MOTION_DDOT": 0}, "tle": {"line1": "1 34648U 97051JZ  25360.72490000  .00013057  00000+0  61458-2 0  9996", "line2": "2 34648  86.3901 276.2989 0177886 254.8250 103.3201 14.11887507851589"}}, "geometry": {"type": "Point", "coordinates": [-92.28640540651156, -66.53378622193434]}}, {"type": "Feature", "properties": {"norad_id": 34651, "name": "IRIDIUM 33 DEB", "group": "iridium-33-debris", "lat": 12.318236943039706, "lon": 135.20495108031923, "alt_km": 889.8614497374429, "timestamp": "2025-12-27T06:41:31.311236+00:00", "meta": {"OBJECT_NAME": "IRIDIUM 33 DEB", "OBJECT_ID": "1997-051KC", "EPOCH": "2025-12-25T15:53:57.959232", "MEAN_MOTION": 14.26027654, "ECCENTRICITY": 0.0142018, "INCLINATION": 86.2827, "RA_OF_ASC_NODE": 135.0795, "ARG_OF_PERICENTER": 163.1805, "MEAN_ANOMALY": 197.4168, "EPHEMERIS_TYPE": 0, "CLASSIFICATION_TYPE": "U", "NORAD_CAT_ID": 34651, "ELEMENT_SET_NO": 999, "REV_AT_EPOCH": 86080, "BSTAR": 0.0036817, "MEAN_MOTION_DOT": 9.797e-05, "MEAN_MOTION_DDOT": 0}, "tle": {"line1": "1 34651U 97051KC  25359.66247638  .00009797  00000+0  36817-2 0  9995", "line2": "2 34651  86.2827 135.0795 0142018 163.1805 197.4168 14.26027654860809"}}, "geometry": {"type": "Point", "coordinates": [135.20495108031923, 12.318236943039706]}}, {"type": "Feature", "properties": {"norad_id": 34652, "name": "IRIDIUM 33 DEB", "group": "iridium-33-debris", "lat": 24.25622025381605, "lon": 151.8709507105442, "alt_km": 685.2874018072625, "timestamp": "2025-12-27T06:41:31.311246+00:00", "meta": {"OBJECT_NAME": "IRIDIUM 33 DEB", "OBJECT_ID": "1997-051KD", "EPOCH": "2025-12-26T21:54:14.287968", "MEAN_MOTION": 14.62189264, "ECCENTRICITY": 0.00254808, "INCLINATION": 86.332, "RA_OF_ASC_NODE": 333.6903, "ARG_OF_PERICENTER": 246.0109, "MEAN_ANOMALY": 143.6409, "EPHEMERIS_TYPE": 0, "CLASSIFICATION_TYPE": "U", "NORAD_CAT_ID": 34652, "ELEMENT_SET_NO": 999, "REV_AT_EPOCH": 88691, "BSTAR": 0.0011443147, "MEAN_MOTION_DOT": 5.808e-05, "MEAN_MOTION_DDOT": 0}, "tle": {"line1": "1 34652U 97051KD  25360.91266537  .00005808  00000+0  11443-2 0  9992", "line2": "2 34652  86.3320 333.6903 0025480 246.0109 143.6409 14.62189264886914"}}, "geometry": {"type": "Point", "coordinates": [151.8709507105442, 24.25622025381605]}}, {"type": "Feature", "properties": {"norad_id": 34690, "name": "IRIDIUM 33 DEB", "group": "iridium-33-debris", "lat": 12.697105211862796, "lon": 31.48930763095524, "alt_km": 704.6601144985189, "timestamp": "2025-12-27T06:41:31.311256+00:00", "meta": {"OBJECT_NAME": "IRIDIUM 33 DEB", "OBJECT_ID": "1997-051KM", "EPOCH": "2025-12-26T19:53:36.427776", "MEAN_MOTION": 14.55146043, "ECCENTRICITY": 0.00092349, "INCLINATION": 86.3773, "RA_OF_ASC_NODE": 30.867, "ARG_OF_PERICENTER": 341.6712, "MEAN_ANOMALY": 195.6004, "EPHEMERIS_TYPE": 0, "CLASSIFICATION_TYPE": "U", "NORAD_CAT_ID": 34690, "ELEMENT_SET_NO": 999, "REV_AT_EPOCH": 88299, "BSTAR": 0.00044241179, "MEAN_MOTION_DOT": 1.932e-05, "MEAN_MOTION_DDOT": 0}, "tle": {"line1": "1 34690U 97051KM  25360.82889384  .00001932  00000+0  44241-3 0  9992", "line2": "2 34690  86.3773  30.8670 0009234 341.6712 195.6004 14.55146043882998"}}, "geometry": {"type": "Point", "coordinates": [31.48930763095524, 12.697105211862796]}}, {"type": "Feature", "properties": {"norad_id": 34693, "name": "IRIDIUM 33 DEB", "group": "iridium-33-debris", "lat": -1.5189212286075906, "lon": -63.51507617879095, "alt_km": 468.7589802813418, "timestamp": "2025-12-27T06:41:31.311266+00:00", "meta": {"OBJECT_NAME": "IRIDIUM 33 DEB", "OBJECT_ID": "1997-051KQ", "EPOCH": "2025-12-26T19:48:57.228768", "MEAN_MOTION": 15.31583943, "ECCENTRICITY": 0.00088429, "INCLINATION": 86.3049, "RA_OF_ASC_NODE": 296.8095, "ARG_OF_PERICENTER": 29.7643, "MEAN_ANOMALY": 351.8395, "EPHEMERIS_TYPE": 0, "CLASSIFICATION_TYPE": "U", "NORAD_CAT_ID": 34693, "ELEMENT_SET_NO": 999, "REV_AT_EPOCH": 89130, "BSTAR": 0.005056928, "MEAN_MOTION_DOT": 0.00157281, "MEAN_MOTION_DDOT": 0}, "tle": {"line1": "1 34693U 97051KQ  25360.82566237  .00157281  00000+0  50569-2 0  9992", "line2": "2 34693  86.3049 296.8095 0008842  29.7643 351.8395 15.31583943891306"}}, "geometry": {"type": "Point", "coordinates": [-63.51507617879095, -1.5189212286075906]}}, {"type": "Feature", "properties": {"norad_id": 34696, "name": "IRIDIUM 33 DEB", "group": "iridium-33-debris", "lat": -30.047001879592077, "lon": 18.543314050667693, "alt_km": 725.0316246955972, "timestamp": "2025-12-27T06:41:31.311276+00:00", "meta": {"OBJECT_NAME": "IRIDIUM 33 DEB", "OBJECT_ID": "1997-051KT", "EPOCH": "2025-12-26T01:36:24.067008", "MEAN_MOTION": 14.65708991, "ECCENTRICITY": 0.00738933, "INCLINATION": 86.1852, "RA_OF_ASC_NODE": 21.3194, "ARG_OF_PERICENTER": 122.6811, "MEAN_ANOMALY": 297.1917, "EPHEMERIS_TYPE": 0, "CLASSIFICATION_TYPE": "U", "NORAD_CAT_ID": 34696, "ELEMENT_SET_NO": 999, "REV_AT_EPOCH": 86868, "BSTAR": 0.0037727771, "MEAN_MOTION_DOT": 0.00021447, "MEAN_MOTION_DDOT": 0}, "tle": {"line1": "1 34696U 97051KT  25360.06694522  .00021447  00000+0  37728-2 0  9996", "line2": "2 34696  86.1852  21.3194 0073893 122.6811 297.1917 14.65708991868683"}}, "geometry": {"type": "Point", "coordinates": [18.543314050667693, -30.047001879592077]}}, {"type": "Feature", "properties": {"norad_id": 34765, "name": "IRIDIUM 33 DEB", "group": "iridium-33-debris", "lat": -3.6883298297037834, "lon": 26.284832089133726, "alt_km": 772.1619181773503, "timestamp": "2025-12-27T06:41:31.311285+00:00", "meta": {"OBJECT_NAME": "IRIDIUM 33 DEB", "OBJECT_ID": "1997-051LJ", "EPOCH": "2025-12-26T19:51:29.882880", "MEAN_MOTION": 14.40499784, "ECCENTRICITY": 0.00169801, "INCLINATION": 86.3378, "RA_OF_ASC_NODE": 26.7151, "ARG_OF_PERICENTER": 164.5853, "MEAN_ANOMALY": 12.4724, "EPHEMERIS_TYPE": 0, "CLASSIFICATION_TYPE": "U", "NORAD_CAT_ID": 34765, "ELEMENT_SET_NO": 999, "REV_AT_EPOCH": 87816, "BSTAR": 0.00040051004, "MEAN_MOTION_DOT": 1.295e-05, "MEAN_MOTION_DDOT": 0}, "tle": {"line1": "1 34765U 97051LJ  25360.82742920  .00001295  00000+0  40051-3 0  9996", "line2": "2 34765  86.3378  26.7151 0016980 164.5853  12.4724 14.40499784878160"}}, "geometry": {"type": "Point", "coordinates": [26.284832089133726, -3.6883298297037834]}}, {"type": "Feature", "properties": {"norad_id": 34833, "name": "IRIDIUM 33 DEB", "group": "iridium-33-debris", "lat": 5.439959534407014, "lon": 45.0707826784054, "alt_km": 709.9851621977514, "timestamp": "2025-12-27T06:41:31.311296+00:00", "meta": {"OBJECT_NAME": "IRIDIUM 33 DEB", "OBJECT_ID": "1997-051MH", "EPOCH": "2025-12-26T21:34:16.309632", "MEAN_MOTION": 14.52457985, "ECCENTRICITY": 0.00211027, "INCLINATION": 86.3918, "RA_OF_ASC_NODE": 44.8903, "ARG_OF_PERICENTER": 55.1593, "MEAN_ANOMALY": 124.7221, "EPHEMERIS_TYPE": 0, "CLASSIFICATION_TYPE": "U", "NORAD_CAT_ID": 34833, "ELEMENT_SET_NO": 999, "REV_AT_EPOCH": 87920, "BSTAR": 0.00081239582, "MEAN_MOTION_DOT": 3.342e-05, "MEAN_MOTION_DDOT": 0}, "tle": {"line1": "1 34833U 97051MH  25360.89879988  .00003342  00000+0  81240-3 0  9994", "line2": "2 34833  86.3918  44.8903 0021102  55.1593 124.7221 14.52457985879205"}}, "geometry": {"type": "Point", "coordinates": [45.0707826784054, 5.439959534407014]}}]}